[{"OBJECT_NAME":"COSMOS 2251 DEB","OBJECT_ID":"1993-036XR","EPOCH":"2026-03-03T04:14:38.657184","MEAN_MOTION":14.68558699,"ECCENTRICITY":0.0009062,"INCLINATION":74.029,"RA_OF_ASC_NODE":338.8101,"ARG_OF_PERICENTER":34.4836,"MEAN_ANOMALY":93.3458,"EPHEMERIS_TYPE":0,"CLASSIFICATION_TYPE":"U","NORAD_CAT_ID":34671,"ELEMENT_SET_NO":999,"REV_AT_EPOCH":89477,"BSTAR":0.0017937,"MEAN_MOTION_DOT":0.00010403,"MEAN_MOTION_DDOT":0},{"OBJECT_NAME":"COSMOS 2251 DEB","OBJECT_ID":"1993-036XS","EPOCH":"2026-03-01T23:11:07.253088","MEAN_MOTION":14.36544729,"ECCENTRICITY":0.00252481,"INCLINATION":74.0329,"RA_OF_ASC_NODE":160.0132,"ARG_OF_PERICENTER":218.9989,"MEAN_ANOMALY":262.2403,"EPHEMERIS_TYPE":0,"CLASSIFICATION_TYPE":"U","NORAD_CAT_ID":34672,"ELEMENT_SET_NO":999,"REV_AT_EPOCH":66315,"BSTAR":0.00025515002,"MEAN_MOTION_DOT":7.26e-6,"MEAN_MOTION_DDOT":0},{"OBJECT_NAME":"COSMOS 2251 DEB","OBJECT_ID":"1993-036XY","EPOCH":"2026-03-02T22:08:26.327616","MEAN_MOTION":14.30080057,"ECCENTRICITY":0.0026415,"INCLINATION":74.036,"RA_OF_ASC_NODE":219.9144,"ARG_OF_PERICENTER":252.082,"MEAN_ANOMALY":269.2697,"EPHEMERIS_TYPE":0,"CLASSIFICATION_TYPE":"U","NORAD_CAT_ID":34678,"ELEMENT_SET_NO":999,"REV_AT_EPOCH":88525,"BSTAR":2.51e-5,"MEAN_MOTION_DOT":3.9e-7,"MEAN_MOTION_DDOT":0},{"OBJECT_NAME":"COSMOS 2251 DEB","OBJECT_ID":"1993-036YA","EPOCH":"2026-03-02T20:38:25.544832","MEAN_MOTION":14.61580123,"ECCENTRICITY":0.0004796,"INCLINATION":74.0457,"RA_OF_ASC_NODE":336.7658,"ARG_OF_PERICENTER":46.1832,"MEAN_ANOMALY":19.3503,"EPHEMERIS_TYPE":0,"CLASSIFICATION_TYPE":"U","NORAD_CAT_ID":34680,"ELEMENT_SET_NO":999,"REV_AT_EPOCH":89498,"BSTAR":0.0010761,"MEAN_MOTION_DOT":5.322e-5,"MEAN_MOTION_DDOT":0},{"OBJECT_NAME":"COSMOS 2251 DEB","OBJECT_ID":"1993-036YB","EPOCH":"2026-03-03T04:15:00.660672","MEAN_MOTION":14.85425963,"ECCENTRICITY":0.0022351,"INCLINATION":74.0619,"RA_OF_ASC_NODE":131.1355,"ARG_OF_PERICENTER":180.1261,"MEAN_ANOMALY":210.8797,"EPHEMERIS_TYPE":0,"CLASSIFICATION_TYPE":"U","NORAD_CAT_ID":34681,"ELEMENT_SET_NO":999,"REV_AT_EPOCH":90464,"BSTAR":0.0013164,"MEAN_MOTION_DOT":0.0001138,"MEAN_MOTION_DDOT":0},{"OBJECT_NAME":"COSMOS 2251 DEB","OBJECT_ID":"1993-036YC","EPOCH":"2026-03-03T01:15:17.472384","MEAN_MOTION":14.59539437,"ECCENTRICITY":0.0017182,"INCLINATION":74.038,"RA_OF_ASC_NODE":289.9535,"ARG_OF_PERICENTER":37.6052,"MEAN_ANOMALY":116.5156,"EPHEMERIS_TYPE":0,"CLASSIFICATION_TYPE":"U","NORAD_CAT_ID":34682,"ELEMENT_SET_NO":999,"REV_AT_EPOCH":89857,"BSTAR":0.00062638,"MEAN_MOTION_DOT":2.953e-5,"MEAN_MOTION_DDOT":0},{"OBJECT_NAME":"COSMOS 2251 DEB","OBJECT_ID":"1993-036YD","EPOCH":"2026-03-03T02:42:52.462944","MEAN_MOTION":14.65595745,"ECCENTRICITY":0.0016923,"INCLINATION":74.0289,"RA_OF_ASC_NODE":297.5885,"ARG_OF_PERICENTER":28.5825,"MEAN_ANOMALY":124.3083,"EPHEMERIS_TYPE":0,"CLASSIFICATION_TYPE":"U","NORAD_CAT_ID":34683,"ELEMENT_SET_NO":999,"REV_AT_EPOCH":89525,"BSTAR":0.0010698,"MEAN_MOTION_DOT":5.796e-5,"MEAN_MOTION_DDOT":0},{"OBJECT_NAME":"COSMOS 2251 DEB","OBJECT_ID":"1993-036YF","EPOCH":"2026-03-03T04:28:05.180448","MEAN_MOTION":14.58335609,"ECCENTRICITY":0.0011728,"INCLINATION":74.0325,"RA_OF_ASC_NODE":355.721,"ARG_OF_PERICENTER":81.8924,"MEAN_ANOMALY":345.4939,"EPHEMERIS_TYPE":0,"CLASSIFICATION_TYPE":"U","NORAD_CAT_ID":34685,"ELEMENT_SET_NO":999,"REV_AT_EPOCH":89704,"BSTAR":0.0010913,"MEAN_MOTION_DOT":5.03e-5,"MEAN_MOTION_DDOT":0},{"OBJECT_NAME":"COSMOS 2251 DEB","OBJECT_ID":"1993-036YK","EPOCH":"2026-03-02T06:15:30.954816","MEAN_MOTION":14.05883314,"ECCENTRICITY":0.02197607,"INCLINATION":74.0867,"RA_OF_ASC_NODE":84.9176,"ARG_OF_PERICENTER":136.5322,"MEAN_ANOMALY":350.6304,"EPHEMERIS_TYPE":0,"CLASSIFICATION_TYPE":"U","NORAD_CAT_ID":34689,"ELEMENT_SET_NO":999,"REV_AT_EPOCH":85458,"BSTAR":0.0024442617,"MEAN_MOTION_DOT":4.952e-5,"MEAN_MOTION_DDOT":0},{"OBJECT_NAME":"COSMOS 2251 DEB","OBJECT_ID":"1993-036YP","EPOCH":"2026-03-02T19:04:54.269184","MEAN_MOTION":13.97225721,"ECCENTRICITY":0.02175792,"INCLINATION":73.9228,"RA_OF_ASC_NODE":187.3224,"ARG_OF_PERICENTER":110.1735,"MEAN_ANOMALY":40.9253,"EPHEMERIS_TYPE":0,"CLASSIFICATION_TYPE":"U","NORAD_CAT_ID":34721,"ELEMENT_SET_NO":999,"REV_AT_EPOCH":86267,"BSTAR":0.0014303545,"MEAN_MOTION_DOT":2.425e-5,"MEAN_MOTION_DDOT":0},{"OBJECT_NAME":"COSMOS 2251 DEB","OBJECT_ID":"1993-036YQ","EPOCH":"2026-03-02T10:46:47.968320","MEAN_MOTION":14.12168674,"ECCENTRICITY":0.01619325,"INCLINATION":73.8722,"RA_OF_ASC_NODE":193.8946,"ARG_OF_PERICENTER":104.476,"MEAN_ANOMALY":322.8976,"EPHEMERIS_TYPE":0,"CLASSIFICATION_TYPE":"U","NORAD_CAT_ID":34722,"ELEMENT_SET_NO":999,"REV_AT_EPOCH":87370,"BSTAR":0.00063530454,"MEAN_MOTION_DOT":1.296e-5,"MEAN_MOTION_DDOT":0},{"OBJECT_NAME":"COSMOS 2251 DEB","OBJECT_ID":"1993-036YU","EPOCH":"2026-03-03T02:53:45.222720","MEAN_MOTION":14.59894255,"ECCENTRICITY":0.0044409,"INCLINATION":74.0286,"RA_OF_ASC_NODE":192.9375,"ARG_OF_PERICENTER":320.9686,"MEAN_ANOMALY":38.8277,"EPHEMERIS_TYPE":0,"CLASSIFICATION_TYPE":"U","NORAD_CAT_ID":34726,"ELEMENT_SET_NO":999,"REV_AT_EPOCH":89675,"BSTAR":0.00045993,"MEAN_MOTION_DOT":2.202e-5,"MEAN_MOTION_DDOT":0},{"OBJECT_NAME":"COSMOS 2251 DEB","OBJECT_ID":"1993-036YW","EPOCH":"2026-02-28T06:28:35.824512","MEAN_MOTION":14.71624289,"ECCENTRICITY":0.00440054,"INCLINATION":74.016,"RA_OF_ASC_NODE":100.9815,"ARG_OF_PERICENTER":242.2585,"MEAN_ANOMALY":117.4121,"EPHEMERIS_TYPE":0,"CLASSIFICATION_TYPE":"U","NORAD_CAT_ID":34728,"ELEMENT_SET_NO":999,"REV_AT_EPOCH":89940,"BSTAR":0.0005592728,"MEAN_MOTION_DOT":3.501e-5,"MEAN_MOTION_DDOT":0},{"OBJECT_NAME":"COSMOS 2251 DEB","OBJECT_ID":"1993-036YX","EPOCH":"2026-03-02T18:45:33.323616","MEAN_MOTION":14.85440389,"ECCENTRICITY":0.00164197,"INCLINATION":74.0152,"RA_OF_ASC_NODE":199.5363,"ARG_OF_PERICENTER":301.5719,"MEAN_ANOMALY":177.1808,"EPHEMERIS_TYPE":0,"CLASSIFICATION_TYPE":"U","NORAD_CAT_ID":34729,"ELEMENT_SET_NO":999,"REV_AT_EPOCH":89645,"BSTAR":0.0021601309,"MEAN_MOTION_DOT":0.00018686,"MEAN_MOTION_DDOT":0},{"OBJECT_NAME":"COSMOS 2251 DEB","OBJECT_ID":"1993-036ZA","EPOCH":"2026-03-03T02:55:03.673920","MEAN_MOTION":14.47394915,"ECCENTRICITY":0.0038234,"INCLINATION":74.0453,"RA_OF_ASC_NODE":302.9704,"ARG_OF_PERICENTER":72.6384,"MEAN_ANOMALY":79.1458,"EPHEMERIS_TYPE":0,"CLASSIFICATION_TYPE":"U","NORAD_CAT_ID":34732,"ELEMENT_SET_NO":999,"REV_AT_EPOCH":89306,"BSTAR":0.00013591,"MEAN_MOTION_DOT":4.76e-6,"MEAN_MOTION_DDOT":0},{"OBJECT_NAME":"COSMOS 2251 DEB","OBJECT_ID":"1993-036ZG","EPOCH":"2026-03-03T03:36:31.327776","MEAN_MOTION":14.46517625,"ECCENTRICITY":0.0045327,"INCLINATION":74.0181,"RA_OF_ASC_NODE":352.9478,"ARG_OF_PERICENTER":121.3722,"MEAN_ANOMALY":303.1603,"EPHEMERIS_TYPE":0,"CLASSIFICATION_TYPE":"U","NORAD_CAT_ID":34738,"ELEMENT_SET_NO":999,"REV_AT_EPOCH":89021,"BSTAR":0.00033663,"MEAN_MOTION_DOT":1.2e-5,"MEAN_MOTION_DDOT":0},{"OBJECT_NAME":"COSMOS 2251 DEB","OBJECT_ID":"1993-036ZU","EPOCH":"2026-03-03T04:08:56.393952","MEAN_MOTION":14.62401882,"ECCENTRICITY":0.003879,"INCLINATION":74.1066,"RA_OF_ASC_NODE":48.4808,"ARG_OF_PERICENTER":333.0167,"MEAN_ANOMALY":156.0218,"EPHEMERIS_TYPE":0,"CLASSIFICATION_TYPE":"U","NORAD_CAT_ID":34750,"ELEMENT_SET_NO":999,"REV_AT_EPOCH":89406,"BSTAR":0.0015933,"MEAN_MOTION_DOT":8.126e-5,"MEAN_MOTION_DDOT":0},{"OBJECT_NAME":"COSMOS 2251 DEB","OBJECT_ID":"1993-036ZW","EPOCH":"2026-03-02T19:32:50.935488","MEAN_MOTION":15.02491552,"ECCENTRICITY":0.0049473,"INCLINATION":74.0119,"RA_OF_ASC_NODE":197.3052,"ARG_OF_PERICENTER":304.7954,"MEAN_ANOMALY":54.8583,"EPHEMERIS_TYPE":0,"CLASSIFICATION_TYPE":"U","NORAD_CAT_ID":34752,"ELEMENT_SET_NO":999,"REV_AT_EPOCH":91051,"BSTAR":0.0011157,"MEAN_MOTION_DOT":0.00015203,"MEAN_MOTION_DDOT":0},{"OBJECT_NAME":"COSMOS 2251 DEB","OBJECT_ID":"1993-036ZY","EPOCH":"2026-03-03T03:33:02.505024","MEAN_MOTION":14.40610342,"ECCENTRICITY":0.0029389,"INCLINATION":74.0284,"RA_OF_ASC_NODE":78.8493,"ARG_OF_PERICENTER":180.8903,"MEAN_ANOMALY":246.7162,"EPHEMERIS_TYPE":0,"CLASSIFICATION_TYPE":"U","NORAD_CAT_ID":34754,"ELEMENT_SET_NO":999,"REV_AT_EPOCH":89291,"BSTAR":0.00019403,"MEAN_MOTION_DOT":5.95e-6,"MEAN_MOTION_DDOT":0},{"OBJECT_NAME":"COSMOS 2251 DEB","OBJECT_ID":"1993-036ZZ","EPOCH":"2026-03-02T05:53:45.718656","MEAN_MOTION":13.50769611,"ECCENTRICITY":0.0405601,"INCLINATION":73.9256,"RA_OF_ASC_NODE":162.2201,"ARG_OF_PERICENTER":167.7079,"MEAN_ANOMALY":222.6181,"EPHEMERIS_TYPE":0,"CLASSIFICATION_TYPE":"U","NORAD_CAT_ID":34755,"ELEMENT_SET_NO":999,"REV_AT_EPOCH":83597,"BSTAR":0.0013777487,"MEAN_MOTION_DOT":1.462e-5,"MEAN_MOTION_DDOT":0},{"OBJECT_NAME":"COSMOS 2251 DEB","OBJECT_ID":"1993-036AAA","EPOCH":"2026-03-02T03:56:23.474112","MEAN_MOTION":13.67481816,"ECCENTRICITY":0.03453372,"INCLINATION":74.005,"RA_OF_ASC_NODE":333.7159,"ARG_OF_PERICENTER":193.1771,"MEAN_ANOMALY":166.0154,"EPHEMERIS_TYPE":0,"CLASSIFICATION_TYPE":"U","NORAD_CAT_ID":34756,"ELEMENT_SET_NO":999,"REV_AT_EPOCH":84507,"BSTAR":0.0005873801,"MEAN_MOTION_DOT":7.26e-6,"MEAN_MOTION_DDOT":0},{"OBJECT_NAME":"COSMOS 2251 DEB","OBJECT_ID":"1993-036AAC","EPOCH":"2026-03-02T07:24:10.321056","MEAN_MOTION":13.58309889,"ECCENTRICITY":0.03862391,"INCLINATION":74.1072,"RA_OF_ASC_NODE":171.3995,"ARG_OF_PERICENTER":276.9649,"MEAN_ANOMALY":78.7686,"EPHEMERIS_TYPE":0,"CLASSIFICATION_TYPE":"U","NORAD_CAT_ID":34758,"ELEMENT_SET_NO":999,"REV_AT_EPOCH":83990,"BSTAR":0.0014749147,"MEAN_MOTION_DOT":1.721e-5,"MEAN_MOTION_DDOT":0},{"OBJECT_NAME":"COSMOS 2251 DEB","OBJECT_ID":"1993-036AAE","EPOCH":"2026-03-02T15:13:45.079392","MEAN_MOTION":14.19800308,"ECCENTRICITY":0.0096625,"INCLINATION":74.0636,"RA_OF_ASC_NODE":159.757,"ARG_OF_PERICENTER":194.6601,"MEAN_ANOMALY":233.0512,"EPHEMERIS_TYPE":0,"CLASSIFICATION_TYPE":"U","NORAD_CAT_ID":34760,"ELEMENT_SET_NO":999,"REV_AT_EPOCH":87822,"BSTAR":0.00060095,"MEAN_MOTION_DOT":1.309e-5,"MEAN_MOTION_DDOT":0}]
